SL-14 R/B               
1 16792U 86046B   26050.14987552  .00000418  00000+0  45412-4 0  9995
2 16792  82.4797  97.7040 0021595 290.5308  69.3591 14.85571446123655
SL-14 R/B               
1 16882U 86055B   26050.27936060  .00000494  00000+0  54073-4 0  9994
2 16882  82.5230 143.9744 0019730  37.0075  16.5524 14.85623414116639
AJISAI (EGS)            
1 16908U 86061A   26050.31916211 -.00000085  00000+0  89911-4 0  9997
2 16908  50.0084 149.8373 0011234 239.6302 162.6202 12.44515337465711
COSMOS 1812             
1 17295U 87003A   26050.25570810  .00421990  77483-4  71495-3 0  9990
2 17295  82.4740 216.6655 0003667 298.3315  61.7594 16.02645207141512
SL-14 R/B               
1 17567U 87024B   26050.12271424  .00000410  00000+0  43912-4 0  9990
2 17567  82.5273 110.2166 0017284 326.3927  33.6191 14.86113632 85377
COSMOS 1833             
1 17589U 87027A   26050.24262663 -.00000065  00000+0 -89073-5 0  9992
2 17589  70.9230   4.7859 0024849 239.7354 120.1308 14.13057314  7715
SL-16 R/B               
1 17590U 87027B   26050.12857138  .00000260  00000+0  15264-3 0  9992
2 17590  71.0040 315.6082 0004458 176.1397 183.9762 14.17164405 12716
SL-14 R/B               
1 17912U 87038B   26050.17548397  .00000427  00000+0  46783-4 0  9997
2 17912  82.5034 314.2462 0018106 222.6820 137.2990 14.85351118 76487
COSMOS 1844             
1 17973U 87041A   26050.29736332  .00000264  00000+0  16208-3 0  9996
2 17973  70.8982  72.9708 0029085  47.0936 313.2619 14.14550133   988
SL-14 R/B               
1 18153U 87055B   26050.29038599  .00000543  00000+0  59653-4 0  9994
2 18153  82.5014   6.3679 0022268  75.4087 284.9597 14.85605004 67204
COSMOS 1867             
1 18187U 87060A   26050.27724601 -.00000018  00000+0  30914-4 0  9998
2 18187  65.0125 358.2665 0014227 277.5381  82.4087 14.31499972 17309
SL-14 R/B               
1 18749U 88001B   26050.01496044  .00000478  00000+0  52491-4 0  9990
2 18749  82.5116 212.9230 0016814 302.8656  57.0941 14.85503313 39251
