CCSDS_OMM_VERS = 2.0
CREATION_DATE  = 
ORIGINATOR     = 

OBJECT_NAME    = SL-14 R/B
OBJECT_ID      = 1986-046B
CENTER_NAME    = EARTH
REF_FRAME      = TEME
TIME_SYSTEM    = UTC
MEAN_ELEMENT_THEORY = SGP/SGP4

EPOCH          = 2026-02-19T03:35:49.244928
MEAN_MOTION    = 14.85571446
ECCENTRICITY   = .0021595
INCLINATION    = 82.4797
RA_OF_ASC_NODE = 97.7040
ARG_OF_PERICENTER = 290.5308
MEAN_ANOMALY   = 69.3591

EPHEMERIS_TYPE = 0
CLASSIFICATION_TYPE = U
NORAD_CAT_ID   = 16792
ELEMENT_SET_NO = 999
REV_AT_EPOCH   = 12365
BSTAR          = .45411691E-4
MEAN_MOTION_DOT = .418E-5
MEAN_MOTION_DDOT = 0

CCSDS_OMM_VERS = 2.0
CREATION_DATE  = 
ORIGINATOR     = 

OBJECT_NAME    = SL-14 R/B
OBJECT_ID      = 1986-055B
CENTER_NAME    = EARTH
REF_FRAME      = TEME
TIME_SYSTEM    = UTC
MEAN_ELEMENT_THEORY = SGP/SGP4

EPOCH          = 2026-02-19T06:42:16.755840
MEAN_MOTION    = 14.85623414
ECCENTRICITY   = .00197304
INCLINATION    = 82.5230
RA_OF_ASC_NODE = 143.9744
ARG_OF_PERICENTER = 37.0075
MEAN_ANOMALY   = 16.5524

EPHEMERIS_TYPE = 0
CLASSIFICATION_TYPE = U
NORAD_CAT_ID   = 16882
ELEMENT_SET_NO = 999
REV_AT_EPOCH   = 11663
BSTAR          = .54073097E-4
MEAN_MOTION_DOT = .494E-5
MEAN_MOTION_DDOT = 0

CCSDS_OMM_VERS = 2.0
CREATION_DATE  = 
ORIGINATOR     = 

OBJECT_NAME    = AJISAI (EGS)
OBJECT_ID      = 1986-061A
CENTER_NAME    = EARTH
REF_FRAME      = TEME
TIME_SYSTEM    = UTC
MEAN_ELEMENT_THEORY = SGP/SGP4

EPOCH          = 2026-02-19T07:39:35.606304
MEAN_MOTION    = 12.44515337
ECCENTRICITY   = .00112342
INCLINATION    = 50.0084
RA_OF_ASC_NODE = 149.8373
ARG_OF_PERICENTER = 239.6302
MEAN_ANOMALY   = 162.6202

EPHEMERIS_TYPE = 0
CLASSIFICATION_TYPE = U
NORAD_CAT_ID   = 16908
ELEMENT_SET_NO = 999
REV_AT_EPOCH   = 46571
BSTAR          = .89911384E-4
MEAN_MOTION_DOT = -.85E-6
MEAN_MOTION_DDOT = 0

CCSDS_OMM_VERS = 2.0
CREATION_DATE  = 
ORIGINATOR     = 

OBJECT_NAME    = COSMOS 1812
OBJECT_ID      = 1987-003A
CENTER_NAME    = EARTH
REF_FRAME      = TEME
TIME_SYSTEM    = UTC
MEAN_ELEMENT_THEORY = SGP/SGP4

EPOCH          = 2026-02-19T06:08:13.179840
MEAN_MOTION    = 16.02645207
ECCENTRICITY   = .00036673
INCLINATION    = 82.4740
RA_OF_ASC_NODE = 216.6655
ARG_OF_PERICENTER = 298.3315
MEAN_ANOMALY   = 61.7594

EPHEMERIS_TYPE = 0
CLASSIFICATION_TYPE = U
NORAD_CAT_ID   = 17295
ELEMENT_SET_NO = 999
REV_AT_EPOCH   = 14151
BSTAR          = .71495296E-3
MEAN_MOTION_DOT = .42199E-2
MEAN_MOTION_DDOT = .77483138E-4

CCSDS_OMM_VERS = 2.0
CREATION_DATE  = 
ORIGINATOR     = 

OBJECT_NAME    = SL-14 R/B
OBJECT_ID      = 1987-024B
CENTER_NAME    = EARTH
REF_FRAME      = TEME
TIME_SYSTEM    = UTC
MEAN_ELEMENT_THEORY = SGP/SGP4

EPOCH          = 2026-02-19T02:56:42.510336
MEAN_MOTION    = 14.86113632
ECCENTRICITY   = .00172847
INCLINATION    = 82.5273
RA_OF_ASC_NODE = 110.2166
ARG_OF_PERICENTER = 326.3927
MEAN_ANOMALY   = 33.6191

EPHEMERIS_TYPE = 0
CLASSIFICATION_TYPE = U
NORAD_CAT_ID   = 17567
ELEMENT_SET_NO = 999
REV_AT_EPOCH   = 8537
BSTAR          = .43912267E-4
MEAN_MOTION_DOT = .41E-5
MEAN_MOTION_DDOT = 0

CCSDS_OMM_VERS = 2.0
CREATION_DATE  = 
ORIGINATOR     = 

OBJECT_NAME    = COSMOS 1833
OBJECT_ID      = 1987-027A
CENTER_NAME    = EARTH
REF_FRAME      = TEME
TIME_SYSTEM    = UTC
MEAN_ELEMENT_THEORY = SGP/SGP4

EPOCH          = 2026-02-19T05:49:22.940832
MEAN_MOTION    = 14.13057314
ECCENTRICITY   = .00248492
INCLINATION    = 70.9230
RA_OF_ASC_NODE = 4.7859
ARG_OF_PERICENTER = 239.7354
MEAN_ANOMALY   = 120.1308

EPHEMERIS_TYPE = 0
CLASSIFICATION_TYPE = U
NORAD_CAT_ID   = 17589
ELEMENT_SET_NO = 999
REV_AT_EPOCH   = 771
BSTAR          = -.8907312E-5
MEAN_MOTION_DOT = -.65E-6
MEAN_MOTION_DDOT = 0

CCSDS_OMM_VERS = 2.0
CREATION_DATE  = 
ORIGINATOR     = 

OBJECT_NAME    = SL-16 R/B
OBJECT_ID      = 1987-027B
CENTER_NAME    = EARTH
REF_FRAME      = TEME
TIME_SYSTEM    = UTC
MEAN_ELEMENT_THEORY = SGP/SGP4

EPOCH          = 2026-02-19T03:05:08.567232
MEAN_MOTION    = 14.17164405
ECCENTRICITY   = .00044583
INCLINATION    = 71.0040
RA_OF_ASC_NODE = 315.6082
ARG_OF_PERICENTER = 176.1397
MEAN_ANOMALY   = 183.9762

EPHEMERIS_TYPE = 0
CLASSIFICATION_TYPE = U
NORAD_CAT_ID   = 17590
ELEMENT_SET_NO = 999
REV_AT_EPOCH   = 1271
BSTAR          = .15264013E-3
MEAN_MOTION_DOT = .26E-5
MEAN_MOTION_DDOT = 0

CCSDS_OMM_VERS = 2.0
CREATION_DATE  = 
ORIGINATOR     = 

OBJECT_NAME    = SL-14 R/B
OBJECT_ID      = 1987-038B
CENTER_NAME    = EARTH
REF_FRAME      = TEME
TIME_SYSTEM    = UTC
MEAN_ELEMENT_THEORY = SGP/SGP4

EPOCH          = 2026-02-19T04:12:41.815008
MEAN_MOTION    = 14.85351118
ECCENTRICITY   = .00181064
INCLINATION    = 82.5034
RA_OF_ASC_NODE = 314.2462
ARG_OF_PERICENTER = 222.6820
MEAN_ANOMALY   = 137.2990

EPHEMERIS_TYPE = 0
CLASSIFICATION_TYPE = U
NORAD_CAT_ID   = 17912
ELEMENT_SET_NO = 999
REV_AT_EPOCH   = 7648
BSTAR          = .46783008E-4
MEAN_MOTION_DOT = .427E-5
MEAN_MOTION_DDOT = 0

CCSDS_OMM_VERS = 2.0
CREATION_DATE  = 
ORIGINATOR     = 

OBJECT_NAME    = COSMOS 1844
OBJECT_ID      = 1987-041A
CENTER_NAME    = EARTH
REF_FRAME      = TEME
TIME_SYSTEM    = UTC
MEAN_ELEMENT_THEORY = SGP/SGP4

EPOCH          = 2026-02-19T07:08:12.190848
MEAN_MOTION    = 14.14550133
ECCENTRICITY   = .00290851
INCLINATION    = 70.8982
RA_OF_ASC_NODE = 72.9708
ARG_OF_PERICENTER = 47.0936
MEAN_ANOMALY   = 313.2619

EPHEMERIS_TYPE = 0
CLASSIFICATION_TYPE = U
NORAD_CAT_ID   = 17973
ELEMENT_SET_NO = 999
REV_AT_EPOCH   = 98
BSTAR          = .16208111E-3
MEAN_MOTION_DOT = .264E-5
MEAN_MOTION_DDOT = 0

CCSDS_OMM_VERS = 2.0
CREATION_DATE  = 
ORIGINATOR     = 

OBJECT_NAME    = SL-14 R/B
OBJECT_ID      = 1987-055B
CENTER_NAME    = EARTH
REF_FRAME      = TEME
TIME_SYSTEM    = UTC
MEAN_ELEMENT_THEORY = SGP/SGP4

EPOCH          = 2026-02-19T06:58:09.349536
MEAN_MOTION    = 14.85605004
ECCENTRICITY   = .00222684
INCLINATION    = 82.5014
RA_OF_ASC_NODE = 6.3679
ARG_OF_PERICENTER = 75.4087
MEAN_ANOMALY   = 284.9597

EPHEMERIS_TYPE = 0
CLASSIFICATION_TYPE = U
NORAD_CAT_ID   = 18153
ELEMENT_SET_NO = 999
REV_AT_EPOCH   = 6720
BSTAR          = .59652576E-4
MEAN_MOTION_DOT = .543E-5
MEAN_MOTION_DDOT = 0

CCSDS_OMM_VERS = 2.0
CREATION_DATE  = 
ORIGINATOR     = 

OBJECT_NAME    = COSMOS 1867
OBJECT_ID      = 1987-060A
CENTER_NAME    = EARTH
REF_FRAME      = TEME
TIME_SYSTEM    = UTC
MEAN_ELEMENT_THEORY = SGP/SGP4

EPOCH          = 2026-02-19T06:39:14.055264
MEAN_MOTION    = 14.31499972
ECCENTRICITY   = .0014227
INCLINATION    = 65.0125
RA_OF_ASC_NODE = 358.2665
ARG_OF_PERICENTER = 277.5381
MEAN_ANOMALY   = 82.4087

EPHEMERIS_TYPE = 0
CLASSIFICATION_TYPE = U
NORAD_CAT_ID   = 18187
ELEMENT_SET_NO = 999
REV_AT_EPOCH   = 1730
BSTAR          = .30914084E-4
MEAN_MOTION_DOT = -.18E-6
MEAN_MOTION_DDOT = 0

CCSDS_OMM_VERS = 2.0
CREATION_DATE  = 
ORIGINATOR     = 

OBJECT_NAME    = SL-14 R/B
OBJECT_ID      = 1988-001B
CENTER_NAME    = EARTH
REF_FRAME      = TEME
TIME_SYSTEM    = UTC
MEAN_ELEMENT_THEORY = SGP/SGP4

EPOCH          = 2026-02-19T00:21:32.582016
MEAN_MOTION    = 14.85503313
ECCENTRICITY   = .0016814
INCLINATION    = 82.5116
RA_OF_ASC_NODE = 212.9230
ARG_OF_PERICENTER = 302.8656
MEAN_ANOMALY   = 57.0941

EPHEMERIS_TYPE = 0
CLASSIFICATION_TYPE = U
NORAD_CAT_ID   = 18749
ELEMENT_SET_NO = 999
REV_AT_EPOCH   = 3925
BSTAR          = .52490709E-4
MEAN_MOTION_DOT = .478E-5
MEAN_MOTION_DDOT = 0

